{
 "generated_at": "2026-06-27T07:50:14Z",
 "sources": [
  {
   "name": "CelesTrak",
   "url": "https://celestrak.org/NORAD/elements/",
   "license": "frei verfügbar; Attribution. Ursprünglich USSPACECOM/Space-Track."
  },
  {
   "name": "GCAT (J. McDowell, planet4589.org)",
   "url": "https://planet4589.org/space/gcat/",
   "license": "CC-BY 4.0"
  }
 ],
 "satellites": [
  {
   "norad": 66752,
   "name": "ICEYE-X59",
   "intl": "2025-276CQ",
   "group": "sar",
   "gcat": {
    "class": "B",
    "category": "IMG-R",
    "owner": "ELKED",
    "state": "GR"
   },
   "omm": {
    "OBJECT_NAME": "ICEYE-X59",
    "OBJECT_ID": "2025-276CQ",
    "EPOCH": "2026-06-26T17:53:24.140256",
    "MEAN_MOTION": 15.01474203,
    "ECCENTRICITY": 0.00019891,
    "INCLINATION": 97.4353,
    "RA_OF_ASC_NODE": 248.634,
    "ARG_OF_PERICENTER": 73.9305,
    "MEAN_ANOMALY": 286.2139,
    "EPHEMERIS_TYPE": 0,
    "CLASSIFICATION_TYPE": "U",
    "NORAD_CAT_ID": 66752,
    "ELEMENT_SET_NO": 999,
    "REV_AT_EPOCH": 3170,
    "BSTAR": 0.00039261657,
    "MEAN_MOTION_DOT": 0.00005019,
    "MEAN_MOTION_DDOT": 0
   }
  },
  {
   "norad": 46497,
   "name": "ICEYE-X6",
   "intl": "2020-068M",
   "group": "sar",
   "gcat": {
    "class": "B",
    "category": "IMG-R",
    "owner": "ICEYE",
    "state": "FI"
   },
   "omm": {
    "OBJECT_NAME": "ICEYE-X6",
    "OBJECT_ID": "2020-068M",
    "EPOCH": "2026-06-26T23:13:35.297760",
    "MEAN_MOTION": 15.04575755,
    "ECCENTRICITY": 0.00089861,
    "INCLINATION": 98.0975,
    "RA_OF_ASC_NODE": 172.1073,
    "ARG_OF_PERICENTER": 65.2063,
    "MEAN_ANOMALY": 295.0096,
    "EPHEMERIS_TYPE": 0,
    "CLASSIFICATION_TYPE": "U",
    "NORAD_CAT_ID": 46497,
    "ELEMENT_SET_NO": 999,
    "REV_AT_EPOCH": 31470,
    "BSTAR": 0.00021173871,
    "MEAN_MOTION_DOT": 0.00002905,
    "MEAN_MOTION_DDOT": 0
   }
  },
  {
   "norad": 66753,
   "name": "ICEYE-X60",
   "intl": "2025-276CR",
   "group": "sar",
   "gcat": {
    "class": "B",
    "category": "IMG-R",
    "owner": "ELKED",
    "state": "GR"
   },
   "omm": {
    "OBJECT_NAME": "ICEYE-X60",
    "OBJECT_ID": "2025-276CR",
    "EPOCH": "2026-06-26T22:11:48.797376",
    "MEAN_MOTION": 15.11343644,
    "ECCENTRICITY": 0.00024741,
    "INCLINATION": 97.4203,
    "RA_OF_ASC_NODE": 250.3066,
    "ARG_OF_PERICENTER": 34.8068,
    "MEAN_ANOMALY": 325.3324,
    "EPHEMERIS_TYPE": 0,
    "CLASSIFICATION_TYPE": "U",
    "NORAD_CAT_ID": 66753,
    "ELEMENT_SET_NO": 999,
    "REV_AT_EPOCH": 3183,
    "BSTAR": 0.00033276449,
    "MEAN_MOTION_DOT": 0.00005549,
    "MEAN_MOTION_DDOT": 0
   }
  },
  {
   "norad": 66754,
   "name": "ICEYE-X61",
   "intl": "2025-276CS",
   "group": "sar",
   "gcat": {
    "class": "B",
    "category": "IMG-R",
    "owner": "ICEYE",
    "state": "FI"
   },
   "omm": {
    "OBJECT_NAME": "ICEYE-X61",
    "OBJECT_ID": "2025-276CS",
    "EPOCH": "2026-06-26T18:45:21.397824",
    "MEAN_MOTION": 15.1850232,
    "ECCENTRICITY": 0.00019405,
    "INCLINATION": 97.4205,
    "RA_OF_ASC_NODE": 251.0925,
    "ARG_OF_PERICENTER": 331.1807,
    "MEAN_ANOMALY": 28.9319,
    "EPHEMERIS_TYPE": 0,
    "CLASSIFICATION_TYPE": "U",
    "NORAD_CAT_ID": 66754,
    "ELEMENT_SET_NO": 999,
    "REV_AT_EPOCH": 3187,
    "BSTAR": 0.00015526081,
    "MEAN_MOTION_DOT": 0.00003135,
    "MEAN_MOTION_DDOT": 0
   }
  },
  {
   "norad": 66755,
   "name": "ICEYE-X62",
   "intl": "2025-276CT",
   "group": "sar",
   "gcat": {
    "class": "B",
    "category": "IMG-R",
    "owner": "MON/WKL",
    "state": "PL"
   },
   "omm": {
    "OBJECT_NAME": "ICEYE-X62",
    "OBJECT_ID": "2025-276CT",
    "EPOCH": "2026-06-26T22:29:04.990848",
    "MEAN_MOTION": 15.10064615,
    "ECCENTRICITY": 0.00019214,
    "INCLINATION": 97.4201,
    "RA_OF_ASC_NODE": 249.84,
    "ARG_OF_PERICENTER": 14.1621,
    "MEAN_ANOMALY": 345.9662,
    "EPHEMERIS_TYPE": 0,
    "CLASSIFICATION_TYPE": "U",
    "NORAD_CAT_ID": 66755,
    "ELEMENT_SET_NO": 999,
    "REV_AT_EPOCH": 3180,
    "BSTAR": 0.00014257829,
    "MEAN_MOTION_DOT": 0.00002259,
    "MEAN_MOTION_DDOT": 0
   }
  },
  {
   "norad": 67372,
   "name": "ICEYE-X63",
   "intl": "2026-004K",
   "group": "sar",
   "gcat": {
    "class": "B",
    "category": "IMG-R",
    "owner": "ICEYE",
    "state": "FI"
   },
   "omm": {
    "OBJECT_NAME": "ICEYE-X63",
    "OBJECT_ID": "2026-004K",
    "EPOCH": "2026-06-26T23:09:22.552704",
    "MEAN_MOTION": 14.88317018,
    "ECCENTRICITY": 0.00058413,
    "INCLINATION": 97.8001,
    "RA_OF_ASC_NODE": 176.4513,
    "ARG_OF_PERICENTER": 95.6319,
    "MEAN_ANOMALY": 264.5564,
    "EPHEMERIS_TYPE": 0,
    "CLASSIFICATION_TYPE": "U",
    "NORAD_CAT_ID": 67372,
    "ELEMENT_SET_NO": 999,
    "REV_AT_EPOCH": 2475,
    "BSTAR": 0.00010986769,
    "MEAN_MOTION_DOT": 0.00000962,
    "MEAN_MOTION_DDOT": 0
   }
  },
  {
   "norad": 67373,
   "name": "ICEYE-X64",
   "intl": "2026-004L",
   "group": "sar",
   "gcat": {
    "class": "D",
    "category": "IMG-R",
    "owner": "PUOL",
    "state": "FI"
   },
   "omm": {
    "OBJECT_NAME": "ICEYE-X64",
    "OBJECT_ID": "2026-004L",
    "EPOCH": "2026-06-26T22:36:13.471776",
    "MEAN_MOTION": 14.87944661,
    "ECCENTRICITY": 0.00075711,
    "INCLINATION": 97.8016,
    "RA_OF_ASC_NODE": 176.3553,
    "ARG_OF_PERICENTER": 101.2936,
    "MEAN_ANOMALY": 258.9131,
    "EPHEMERIS_TYPE": 0,
    "CLASSIFICATION_TYPE": "U",
    "NORAD_CAT_ID": 67373,
    "ELEMENT_SET_NO": 999,
    "REV_AT_EPOCH": 2474,
    "BSTAR": 0.00014645772,
    "MEAN_MOTION_DOT": 0.00001288,
    "MEAN_MOTION_DDOT": 0
   }
  },
  {
   "norad": 66300,
   "name": "ICEYE-X65",
   "intl": "2025-248H",
   "group": "sar",
   "gcat": {
    "class": "B",
    "category": "IMG-R",
    "owner": "SP42",
    "state": "UAE"
   },
   "omm": {
    "OBJECT_NAME": "ICEYE-X65",
    "OBJECT_ID": "2025-248H",
    "EPOCH": "2026-06-26T18:07:43.046976",
    "MEAN_MOTION": 15.07804134,
    "ECCENTRICITY": 0.00042885,
    "INCLINATION": 45.4051,
    "RA_OF_ASC_NODE": 83.8638,
    "ARG_OF_PERICENTER": 83.4376,
    "MEAN_ANOMALY": 276.6994,
    "EPHEMERIS_TYPE": 0,
    "CLASSIFICATION_TYPE": "U",
    "NORAD_CAT_ID": 66300,
    "ELEMENT_SET_NO": 999,
    "REV_AT_EPOCH": 3696,
    "BSTAR": 0.00024901611,
    "MEAN_MOTION_DOT": 0.00003624,
    "MEAN_MOTION_DDOT": 0
   }
  },
  {
   "norad": 66301,
   "name": "ICEYE-X66",
   "intl": "2025-248J",
   "group": "sar",
   "gcat": {
    "class": "B",
    "category": "IMG-R",
    "owner": "SP42",
    "state": "UAE"
   },
   "omm": {
    "OBJECT_NAME": "ICEYE-X66",
    "OBJECT_ID": "2025-248J",
    "EPOCH": "2026-06-26T18:26:21.238368",
    "MEAN_MOTION": 15.09049113,
    "ECCENTRICITY": 0.00039809,
    "INCLINATION": 45.4011,
    "RA_OF_ASC_NODE": 83.0689,
    "ARG_OF_PERICENTER": 76.787,
    "MEAN_ANOMALY": 283.3456,
    "EPHEMERIS_TYPE": 0,
    "CLASSIFICATION_TYPE": "U",
    "NORAD_CAT_ID": 66301,
    "ELEMENT_SET_NO": 999,
    "REV_AT_EPOCH": 3695,
    "BSTAR": 0.00026592195,
    "MEAN_MOTION_DOT": 0.00004028,
    "MEAN_MOTION_DDOT": 0
   }
  },
  {
   "norad": 66302,
   "name": "ICEYE-X67",
   "intl": "2025-248K",
   "group": "sar",
   "gcat": {
    "class": "B",
    "category": "IMG-R",
    "owner": "SP42",
    "state": "UAE"
   },
   "omm": {
    "OBJECT_NAME": "ICEYE-X67",
    "OBJECT_ID": "2025-248K",
    "EPOCH": "2026-06-26T19:01:35.130144",
    "MEAN_MOTION": 15.09027303,
    "ECCENTRICITY": 0.00054863,
    "INCLINATION": 45.4051,
    "RA_OF_ASC_NODE": 82.5098,
    "ARG_OF_PERICENTER": 81.9374,
    "MEAN_ANOMALY": 278.2131,
    "EPHEMERIS_TYPE": 0,
    "CLASSIFICATION_TYPE": "U",
    "NORAD_CAT_ID": 66302,
    "ELEMENT_SET_NO": 999,
    "REV_AT_EPOCH": 3697,
    "BSTAR": 0.00025676674,
    "MEAN_MOTION_DOT": 0.00003878,
    "MEAN_MOTION_DDOT": 0
   }
  }
 ]
}
