ICEYE-X6                
1 46497U 20068M   26177.96776965  .00002905  00000+0  21174-3 0  9997
2 46497  98.0975 172.1073 0008986  65.2063 295.0096 15.04575755314704
ICEYE-X65               
1 66300U 25248H   26177.75535934  .00003624  00000+0  24902-3 0  9994
2 66300  45.4051  83.8638 0004288  83.4376 276.6994 15.07804134 36965
ICEYE-X66               
1 66301U 25248J   26177.76830137  .00004028  00000+0  26592-3 0  9995
2 66301  45.4011  83.0689 0003980  76.7870 283.3456 15.09049113 36959
ICEYE-X67               
1 66302U 25248K   26177.79276771  .00003878  00000+0  25677-3 0  9992
2 66302  45.4051  82.5098 0005486  81.9374 278.2131 15.09027303 36974
ICEYE-X59               
1 66752U 25276CQ  26177.74541829  .00005019  00000+0  39262-3 0  9990
2 66752  97.4353 248.6340 0001989  73.9305 286.2139 15.01474203 31709
ICEYE-X60               
1 66753U 25276CR  26177.92487034  .00005549  00000+0  33276-3 0  9995
2 66753  97.4203 250.3066 0002474  34.8068 325.3324 15.11343644 31831
ICEYE-X61               
1 66754U 25276CS  26177.78149766  .00003135  00000+0  15526-3 0  9994
2 66754  97.4205 251.0925 0001940 331.1807  28.9319 15.18502320 31876
ICEYE-X62               
1 66755U 25276CT  26177.93686332  .00002259  00000+0  14258-3 0  9994
2 66755  97.4201 249.8400 0001921  14.1621 345.9662 15.10064615 31805
ICEYE-X63               
1 67372U 26004K   26177.96484436  .00000962  00000+0  10987-3 0  9998
2 67372  97.8001 176.4513 0005841  95.6319 264.5564 14.88317018 24751
ICEYE-X64               
1 67373U 26004L   26177.94182259  .00001288  00000+0  14646-3 0  9993
2 67373  97.8016 176.3553 0007571 101.2936 258.9131 14.87944661 24747
